{
    "links": {
        "self": "http://www.neowsapp.com/rest/v1/neo/3726709?api_key=iIulBulltgU6a56xZRHN4H3l9WmuAYTsLGpBGhQ2"
    },
    "id": "3726709",
    "neo_reference_id": "3726709",
    "name": "(2015 RD)",
    "designation": "2015 RD",
    "nasa_jpl_url": "http://ssd.jpl.nasa.gov/sbdb.cgi?sstr=3726709",
    "absolute_magnitude_h": 25.9,
    "estimated_diameter": {
        "kilometers": {
            "estimated_diameter_min": 0.0175612318,
            "estimated_diameter_max": 0.0392681082
        },
        "meters": {
            "estimated_diameter_min": 17.561231848,
            "estimated_diameter_max": 39.2681081809
        },
        "miles": {
            "estimated_diameter_min": 0.0109120402,
            "estimated_diameter_max": 0.0244000636
        },
        "feet": {
            "estimated_diameter_min": 57.6155918963,
            "estimated_diameter_max": 128.8323800441
        }
    },
    "is_potentially_hazardous_asteroid": false,
    "close_approach_data": [
        {
            "close_approach_date": "2009-10-05",
            "close_approach_date_full": "2009-Oct-05 23:02",
            "epoch_date_close_approach": 1254783720000,
            "relative_velocity": {
                "kilometers_per_second": "21.0036736872",
                "kilometers_per_hour": "75613.2252740996",
                "miles_per_hour": "46983.1176710093"
            },
            "miss_distance": {
                "astronomical": "0.4580352393",
                "lunar": "178.1757080877",
                "kilometers": "68521096.184220291",
                "miles": "42577034.8455343758"
            },
            "orbiting_body": "Earth"
        },
        {
            "close_approach_date": "2012-09-21",
            "close_approach_date_full": "2012-Sep-21 12:21",
            "epoch_date_close_approach": 1348230060000,
            "relative_velocity": {
                "kilometers_per_second": "14.2376363058",
                "kilometers_per_hour": "51255.4907009239",
                "miles_per_hour": "31848.1686524713"
            },
            "miss_distance": {
                "astronomical": "0.2272718377",
                "lunar": "88.4087448653",
                "kilometers": "33999382.830905699",
                "miles": "21126236.8545046862"
            },
            "orbiting_body": "Earth"
        },
        {
            "close_approach_date": "2015-08-30",
            "close_approach_date_full": "2015-Aug-30 04:16",
            "epoch_date_close_approach": 1440908160000,
            "relative_velocity": {
                "kilometers_per_second": "8.4168179256",
                "kilometers_per_hour": "30300.5445322176",
                "miles_per_hour": "18827.5800178104"
            },
            "miss_distance": {
                "astronomical": "0.0328876262",
                "lunar": "12.7932865918",
                "kilometers": "4919918.828876194",
                "miles": "3057095.8008477172"
            },
            "orbiting_body": "Earth"
        }
    ],
    "orbital_data": {
        "orbit_id": "10",
        "orbit_determination_date": "2017-04-06 08:32:14",
        "first_observation_date": "2015-09-06",
        "last_observation_date": "2015-09-20",
        "data_arc_in_days": 14,
        "observations_used": 48,
        "orbit_uncertainty": "7",
        "minimum_orbit_intersection": ".0305984",
        "jupiter_tisserand_invariant": "3.601",
        "epoch_osculation": "2459000.5",
        "eccentricity": ".5057522509045312",
        "semi_major_axis": "2.064147173311478",
        "inclination": "6.384334912636131",
        "ascending_node_longitude": "343.2596548417974",
        "orbital_period": "1083.201906267881",
        "perihelion_distance": "1.020200094210973",
        "perihelion_argument": "334.155657945322",
        "aphelion_distance": "3.108094252411984",
        "perihelion_time": "2459416.290632928554",
        "mean_anomaly": "221.812809792765",
        "mean_motion": ".3323480118682234",
        "equinox": "J2000",
        "orbit_class": {
            "orbit_class_type": "AMO",
            "orbit_class_description": "Near-Earth asteroid orbits similar to that of 1221 Amor",
            "orbit_class_range": "1.017 AU < q (perihelion) < 1.3 AU"
        }
    },
    "is_sentry_object": false
}